0 BREEZE-M DEB (TANK)
1 37828U 11054C   13282.08627374  .00003910  00000-0  12239-2 0  3325
2 37828 049.3840 178.8845 5624739 041.7523 014.0355 04.57801767 31497
0 BREEZE-M DEB (TANK)
1 37828U 11054C   13282.76300028  .00003830  00000-0  11953-2 0  3338
2 37828 049.3840 178.4459 5624840 042.1280 049.3403 04.57805288 31523
0 BREEZE-M DEB (TANK)
1 37828U 11054C   13287.33181780  .00004511  00000-0  14515-2 0  3354
2 37828 049.3846 175.4852 5625592 044.6647 019.5104 04.57850002 31736
0 BREEZE-M DEB (TANK)
1 37828U 11054C   13289.94771262  .00004699  00000-0  14927-2 0  3368
2 37828 049.3845 173.7894 5626013 046.1162 011.2810 04.57881148 31851
0 BREEZE-M DEB (TANK)
1 37828U 11054C   13291.04034023  .00004684  00000-0  14683-2 0  3373
2 37828 049.3848 173.0809 5626172 046.7228 012.3407 04.57893243 31907
0 BREEZE-M DEB (TANK)
1 37828U 11054C   13292.13625655  .00004772  00000-0  14718-2 0  3389
2 37828 049.3849 172.3698 5626363 047.3315 018.8692 04.57901819 31953
0 BREEZE-M DEB (TANK)
1 37828U 11054C   13293.65006113  .00004799  00000-0  14506-2 0  3394
2 37828 049.3851 171.3878 5626606 048.1713 354.3200 04.57912604 32022
0 BREEZE-M DEB (TANK)
1 37828U 11054C   13296.08058253  .00004525  00000-0  13407-2 0  3404
2 37828 049.3854 169.8107 5626936 049.5250 041.0745 04.57946029 32133
